start=new Date('2022-12-04T00:00:00.000Z').valueOf();
sats=[{"PERIAPSIS":"546.246","MEAN_MOTION_DOT":"0.00001462","REF_FRAME":"TEME","PERIOD":"95.593","MEAN_MOTION":"15.06389220","OBJECT_NAME":"STARLINK-1525","GP_ID":"219477151","NORAD_CAT_ID":"46066","SITE":"AFETR","TLE_LINE1":"1 46066U 20055AR  22337.58464180  .00001462  00000-0  11704-3 0  9996","RCS_SIZE":"LARGE","CLASSIFICATION_TYPE":"U","COUNTRY_CODE":"US","TLE_LINE2":"2 46066  53.0554  48.1945 0001445  67.5293 292.5849 15.06389220129628","BSTAR":"0.00011704000000","FILE":"3680595","LAUNCH_DATE":"2020-08-07","DECAY_DATE":null,"ECCENTRICITY":"0.00014450","REV_AT_EPOCH":"12962","APOAPSIS":"548.247","MEAN_ANOMALY":"292.5849","ELEMENT_SET_NO":"999","EPHEMERIS_TYPE":"0","ARG_OF_PERICENTER":"67.5293","CENTER_NAME":"EARTH","SEMIMAJOR_AXIS":"6925.382","INCLINATION":"53.0554","TIME_SYSTEM":"UTC","OBJECT_ID":"2020-055AR","RA_OF_ASC_NODE":"48.1945","MEAN_ELEMENT_THEORY":"SGP4","MEAN_MOTION_DDOT":"0.0000000000000","EPOCH":"2022-12-03T14:01:53.051520","OBJECT_TYPE":"PAYLOAD"},{"RA_OF_ASC_NODE":"48.1674","OBJECT_ID":"2020-055AS","TIME_SYSTEM":"UTC","INCLINATION":"53.0573","CENTER_NAME":"EARTH","SEMIMAJOR_AXIS":"6925.385","EPOCH":"2022-12-03T14:05:50.159904","OBJECT_TYPE":"PAYLOAD","MEAN_MOTION_DDOT":"0.0000000000000","MEAN_ELEMENT_THEORY":"SGP4","ELEMENT_SET_NO":"999","MEAN_ANOMALY":"303.7440","EPHEMERIS_TYPE":"0","ARG_OF_PERICENTER":"56.3711","TLE_LINE1":"1 46067U 20055AS  22337.58738611 -.00000080  00000-0  13512-4 0  9996","SITE":"AFETR","NORAD_CAT_ID":"46067","GP_ID":"219453775","REV_AT_EPOCH":"12909","APOAPSIS":"548.422","DECAY_DATE":null,"ECCENTRICITY":"0.00016930","TLE_LINE2":"2 46067  53.0573  48.1674 0001693  56.3711 303.7440 15.06388118129093","BSTAR":"0.00001351200000","FILE":"3680333","LAUNCH_DATE":"2020-08-07","COUNTRY_CODE":"US","CLASSIFICATION_TYPE":"U","RCS_SIZE":"LARGE","PERIOD":"95.593","REF_FRAME":"TEME","MEAN_MOTION_DOT":"-0.00000080","PERIAPSIS":"546.078","OBJECT_NAME":"STARLINK-1529","MEAN_MOTION":"15.06388118"},{"RCS_SIZE":"LARGE","CLASSIFICATION_TYPE":"U","COUNTRY_CODE":"US","TLE_LINE2":"2 46068  53.0558  47.5228 0001949  45.6638 314.4510 15.06390489129651","FILE":"3680595","BSTAR":"0.00008395000000","LAUNCH_DATE":"2020-08-07","DECAY_DATE":null,"ECCENTRICITY":"0.00019490","REV_AT_EPOCH":"12965","APOAPSIS":"548.592","GP_ID":"219476151","NORAD_CAT_ID":"46068","SITE":"AFETR","TLE_LINE1":"1 46068U 20055AT  22337.73112664  .00000969  00000-0  83950-4 0  9996","MEAN_MOTION":"15.06390489","OBJECT_NAME":"STARLINK-1532","PERIAPSIS":"545.893","MEAN_MOTION_DOT":"0.00000969","REF_FRAME":"TEME","PERIOD":"95.593","MEAN_ELEMENT_THEORY":"SGP4","MEAN_MOTION_DDOT":"0.0000000000000","EPOCH":"2022-12-03T17:32:49.341696","OBJECT_TYPE":"PAYLOAD","CENTER_NAME":"EARTH","SEMIMAJOR_AXIS":"6925.378","INCLINATION":"53.0558","OBJECT_ID":"2020-055AT","TIME_SYSTEM":"UTC","RA_OF_ASC_NODE":"47.5228","EPHEMERIS_TYPE":"0","ARG_OF_PERICENTER":"45.6638","MEAN_ANOMALY":"314.4510","ELEMENT_SET_NO":"999"},{"OBJECT_TYPE":"PAYLOAD","EPOCH":"2022-12-03T16:19:52.413600","MEAN_MOTION_DDOT":"0.0000000000000","MEAN_ELEMENT_THEORY":"SGP4","RA_OF_ASC_NODE":"47.7664","TIME_SYSTEM":"UTC","OBJECT_ID":"2020-055AU","INCLINATION":"53.0556","CENTER_NAME":"EARTH","SEMIMAJOR_AXIS":"6925.348","EPHEMERIS_TYPE":"0","ARG_OF_PERICENTER":"72.2793","ELEMENT_SET_NO":"999","MEAN_ANOMALY":"287.8338","APOAPSIS":"548.119","REV_AT_EPOCH":"12965","ECCENTRICITY":"0.00013080","DECAY_DATE":null,"LAUNCH_DATE":"2020-08-07","TLE_LINE2":"2 46069  53.0556  47.7664 0001308  72.2793 287.8338 15.06400204129651","FILE":"3680595","BSTAR":"-0.00007515700000","COUNTRY_CODE":"US","CLASSIFICATION_TYPE":"U","RCS_SIZE":"LARGE","TLE_LINE1":"1 46069U 20055AU  22337.68046775 -.00001401  00000-0 -75157-4 0  9994","SITE":"AFETR","NORAD_CAT_ID":"46069","GP_ID":"219477405","OBJECT_NAME":"STARLINK-1533","MEAN_MOTION":"15.06400204","PERIOD":"95.592","REF_FRAME":"TEME","MEAN_MOTION_DOT":"-0.00001401","PERIAPSIS":"546.307"},{"MEAN_MOTION_DOT":"-0.00001033","PERIAPSIS":"546.355","PERIOD":"95.592","REF_FRAME":"TEME","MEAN_MOTION":"15.06404292","OBJECT_NAME":"STARLINK-1536","GP_ID":"219477651","TLE_LINE1":"1 46070U 20055AV  22337.62885865 -.00001033  00000-0 -50452-4 0  9993","SITE":"AFETR","NORAD_CAT_ID":"46070","COUNTRY_CODE":"US","CLASSIFICATION_TYPE":"U","RCS_SIZE":"LARGE","APOAPSIS":"548.046","REV_AT_EPOCH":"12964","DECAY_DATE":null,"ECCENTRICITY":"0.00012210","BSTAR":"-0.00005045200000","TLE_LINE2":"2 46070  53.0559  47.9980 0001221  70.3604 289.7517 15.06404292129643","FILE":"3680595","LAUNCH_DATE":"2020-08-07","MEAN_ANOMALY":"289.7517","ELEMENT_SET_NO":"999","EPHEMERIS_TYPE":"0","ARG_OF_PERICENTER":"70.3604","SEMIMAJOR_AXIS":"6925.335","CENTER_NAME":"EARTH","RA_OF_ASC_NODE":"47.9980","OBJECT_ID":"2020-055AV","TIME_SYSTEM":"UTC","INCLINATION":"53.0559","MEAN_ELEMENT_THEORY":"SGP4","OBJECT_TYPE":"PAYLOAD","EPOCH":"2022-12-03T15:05:33.387360","MEAN_MOTION_DDOT":"0.0000000000000"},{"OBJECT_TYPE":"PAYLOAD","EPOCH":"2022-12-03T12:21:01.882368","MEAN_MOTION_DDOT":"0.0000000000000","MEAN_ELEMENT_THEORY":"SGP4","OBJECT_ID":"2020-055AW","TIME_SYSTEM":"UTC","INCLINATION":"53.0574","RA_OF_ASC_NODE":"48.5084","SEMIMAJOR_AXIS":"6925.352","CENTER_NAME":"EARTH","EPHEMERIS_TYPE":"0","ARG_OF_PERICENTER":"59.8040","ELEMENT_SET_NO":"999","MEAN_ANOMALY":"300.3099","ECCENTRICITY":"0.00015130","DECAY_DATE":null,"LAUNCH_DATE":"2020-08-07","TLE_LINE2":"2 46071  53.0574  48.5084 0001513  59.8040 300.3099 15.06399034129623","FILE":"3680253","BSTAR":"0.00003257000000","REV_AT_EPOCH":"12962","APOAPSIS":"548.264","COUNTRY_CODE":"US","CLASSIFICATION_TYPE":"U","RCS_SIZE":"LARGE","SITE":"AFETR","NORAD_CAT_ID":"46071","TLE_LINE1":"1 46071U 20055AW  22337.51460512  .00000204  00000-0  32570-4 0  9998","GP_ID":"219446121","OBJECT_NAME":"STARLINK-1538","MEAN_MOTION":"15.06399034","PERIOD":"95.592","REF_FRAME":"TEME","PERIAPSIS":"546.169","MEAN_MOTION_DOT":"0.00000204"},{"TLE_LINE1":"1 46072U 20055AX  22337.67215825 -.00001106  00000-0 -55383-4 0  9992","SITE":"AFETR","NORAD_CAT_ID":"46072","GP_ID":"219476651","APOAPSIS":"548.187","REV_AT_EPOCH":"12963","DECAY_DATE":null,"ECCENTRICITY":"0.00013910","LAUNCH_DATE":"2020-08-07","TLE_LINE2":"2 46072  53.0559  47.7991 0001391  86.9613 273.1535 15.06396772129635","FILE":"3680595","BSTAR":"-0.00005538300000","COUNTRY_CODE":"US","RCS_SIZE":"LARGE","CLASSIFICATION_TYPE":"U","PERIOD":"95.592","REF_FRAME":"TEME","MEAN_MOTION_DOT":"-0.00001106","PERIAPSIS":"546.260","OBJECT_NAME":"STARLINK-1539","MEAN_MOTION":"15.06396772","RA_OF_ASC_NODE":"47.7991","TIME_SYSTEM":"UTC","OBJECT_ID":"2020-055AX","INCLINATION":"53.0559","SEMIMAJOR_AXIS":"6925.358","CENTER_NAME":"EARTH","EPOCH":"2022-12-03T16:07:54.472800","OBJECT_TYPE":"PAYLOAD","MEAN_MOTION_DDOT":"0.0000000000000","MEAN_ELEMENT_THEORY":"SGP4","ELEMENT_SET_NO":"999","MEAN_ANOMALY":"273.1535","ARG_OF_PERICENTER":"86.9613","EPHEMERIS_TYPE":"0"},{"RA_OF_ASC_NODE":"47.7219","INCLINATION":"53.0553","OBJECT_ID":"2020-055AY","TIME_SYSTEM":"UTC","CENTER_NAME":"EARTH","SEMIMAJOR_AXIS":"6925.357","MEAN_MOTION_DDOT":"0.0000000000000","OBJECT_TYPE":"PAYLOAD","EPOCH":"2022-12-03T16:30:29.678400","MEAN_ELEMENT_THEORY":"SGP4","ELEMENT_SET_NO":"999","MEAN_ANOMALY":"301.3687","ARG_OF_PERICENTER":"58.7465","EPHEMERIS_TYPE":"0","TLE_LINE1":"1 46073U 20055AY  22337.68784350 -.00000735  00000-0 -30447-4 0  9999","NORAD_CAT_ID":"46073","SITE":"AFETR","GP_ID":"219476907","REV_AT_EPOCH":"12964","APOAPSIS":"548.378","BSTAR":"-0.00003044700000","TLE_LINE2":"2 46073  53.0553  47.7219 0001669  58.7465 301.3687 15.06397305129649","FILE":"3680595","LAUNCH_DATE":"2020-08-07","ECCENTRICITY":"0.00016690","DECAY_DATE":null,"RCS_SIZE":"LARGE","CLASSIFICATION_TYPE":"U","COUNTRY_CODE":"US","REF_FRAME":"TEME","PERIOD":"95.592","MEAN_MOTION_DOT":"-0.00000735","PERIAPSIS":"546.066","OBJECT_NAME":"STARLINK-1542","MEAN_MOTION":"15.06397305"},{"RA_OF_ASC_NODE":"47.7831","TIME_SYSTEM":"UTC","OBJECT_ID":"2020-055AZ","INCLINATION":"53.0573","CENTER_NAME":"EARTH","SEMIMAJOR_AXIS":"6925.365","EPOCH":"2022-12-03T16:09:16.262496","OBJECT_TYPE":"PAYLOAD","MEAN_MOTION_DDOT":"0.0000000000000","MEAN_ELEMENT_THEORY":"SGP4","ELEMENT_SET_NO":"999","MEAN_ANOMALY":"292.1796","EPHEMERIS_TYPE":"0","ARG_OF_PERICENTER":"67.9362","TLE_LINE1":"1 46074U 20055AZ  22337.67310489 -.00000955  00000-0 -45260-4 0  9990","SITE":"AFETR","NORAD_CAT_ID":"46074","GP_ID":"219477152","REV_AT_EPOCH":"12963","APOAPSIS":"548.335","DECAY_DATE":null,"ECCENTRICITY":"0.00015950","TLE_LINE2":"2 46074  53.0573  47.7831 0001595  67.9362 292.1796 15.06394531129633","FILE":"3680595","LAUNCH_DATE":"2020-08-07","BSTAR":"-0.00004526000000","COUNTRY_CODE":"US","CLASSIFICATION_TYPE":"U","RCS_SIZE":"LARGE","PERIOD":"95.592","REF_FRAME":"TEME","MEAN_MOTION_DOT":"-0.00000955","PERIAPSIS":"546.126","OBJECT_NAME":"STARLINK-1549","MEAN_MOTION":"15.06394531"},{"PERIAPSIS":"546.155","MEAN_MOTION_DOT":"-0.00000393","PERIOD":"95.592","REF_FRAME":"TEME","MEAN_MOTION":"15.06395016","OBJECT_NAME":"STARLINK-1551","GP_ID":"219445622","SITE":"AFETR","NORAD_CAT_ID":"46075","TLE_LINE1":"1 46075U 20055BA  22337.49986060 -.00000393  00000-0 -75181-5 0  9997","COUNTRY_CODE":"US","CLASSIFICATION_TYPE":"U","RCS_SIZE":"LARGE","ECCENTRICITY":"0.00015510","DECAY_DATE":null,"TLE_LINE2":"2 46075  53.0591  48.5717 0001551  48.6974 311.4149 15.06395016129617","FILE":"3680253","BSTAR":"-0.00000751810000","LAUNCH_DATE":"2020-08-07","REV_AT_EPOCH":"12961","APOAPSIS":"548.303","MEAN_ANOMALY":"311.4149","ELEMENT_SET_NO":"999","EPHEMERIS_TYPE":"0","ARG_OF_PERICENTER":"48.6974","CENTER_NAME":"EARTH","SEMIMAJOR_AXIS":"6925.364","OBJECT_ID":"2020-055BA","TIME_SYSTEM":"UTC","INCLINATION":"53.0591","RA_OF_ASC_NODE":"48.5717","MEAN_ELEMENT_THEORY":"SGP4","OBJECT_TYPE":"PAYLOAD","EPOCH":"2022-12-03T11:59:47.955840","MEAN_MOTION_DDOT":"0.0000000000000"}];
